HTV-X1                  
1 66174U 25241A   26073.34423285  .00013198  00000+0  56794-3 0  9992
2 66174  51.6357  50.7100 0005732 187.3443 172.7451 15.22910005 21660
SZ-21 MODULE            
1 66515U 25246C   26080.84864069  .00044117  00000+0  36505-3 0  9991
2 66515  41.4733 128.4589 0000505 233.4003 126.6793 15.69453239 19987
SHENZHOU-22             
1 66645U 25272A   26081.25526573  .00025791  00000+0  29763-3 0  9990
2 66645  41.4659 131.6673 0005233 353.6422   6.4349 15.61310205279102
SOYUZ-MS 28             
1 66664U 25275A   26081.16296743  .00015089  00000+0  28686-3 0  9999
2 66664  51.6343  10.6992 0006186 218.8034 141.2511 15.48444672557711
DUPLEX                  
1 66906U 98067XS  26081.04078204  .00034012  00000+0  46722-3 0  9992
2 66906  51.6305   7.6356 0003095 165.6080 194.5000 15.56978063 17051
ISS OBJECT XT           
1 66907U 98067XT  26081.04792705  .00207763  00000+0  14285-2 0  9995
2 66907  51.6258   2.4058 0005317 159.5526 200.5686 15.73470745 17126
ISS OBJECT XU           
1 66908U 98067XU  26081.04503716  .00209827  00000+0  14326-2 0  9997
2 66908  51.6253   2.3825 0005519 158.4506 201.6726 15.73628129 17121
SILVERSAT               
1 66909U 98067XV  26081.01897067  .00292872  00000+0  16493-2 0  9999
2 66909  51.6232   1.4518 0006012 164.3213 195.7975 15.77783602 17130
ISS OBJECT XW           
1 66910U 98067XW  26081.04959972  .00190918  00000+0  13779-2 0  9990
2 66910  51.6254   2.4094 0005916 160.5806 199.5419 15.72382952 17126
ISS OBJECT XX           
1 66911U 98067XX  26080.79564983  .00462250  00000+0  20542-2 0  9993
2 66911  51.6202   1.4317 0007596 165.5607 194.5614 15.82512156 17109
ISS OBJECT XY           
1 66912U 98067XY  26080.52366142  .00129023  00000+0  12252-2 0  9999
2 66912  51.6282   7.1735 0003878 158.9718 201.1438 15.65954710 17008
KNACKSAT-2              
1 67683U 98067XZ  26081.02346427  .00048297  00000+0  76673-3 0  9996
2 67683  51.6319  10.5197 0009779 229.8924 130.1210 15.52813480  6706
