CCSDS_OMM_VERS = 2.0
CREATION_DATE  = 
ORIGINATOR     = 

OBJECT_NAME    = HTV-X1
OBJECT_ID      = 2025-241A
CENTER_NAME    = EARTH
REF_FRAME      = TEME
TIME_SYSTEM    = UTC
MEAN_ELEMENT_THEORY = SGP/SGP4

EPOCH          = 2026-03-14T08:15:41.718240
MEAN_MOTION    = 15.22910005
ECCENTRICITY   = .00057324
INCLINATION    = 51.6357
RA_OF_ASC_NODE = 50.7100
ARG_OF_PERICENTER = 187.3443
MEAN_ANOMALY   = 172.7451

EPHEMERIS_TYPE = 0
CLASSIFICATION_TYPE = U
NORAD_CAT_ID   = 66174
ELEMENT_SET_NO = 999
REV_AT_EPOCH   = 2166
BSTAR          = .5679389E-3
MEAN_MOTION_DOT = .13198E-3
MEAN_MOTION_DDOT = 0

CCSDS_OMM_VERS = 2.0
CREATION_DATE  = 
ORIGINATOR     = 

OBJECT_NAME    = SZ-21 MODULE
OBJECT_ID      = 2025-246C
CENTER_NAME    = EARTH
REF_FRAME      = TEME
TIME_SYSTEM    = UTC
MEAN_ELEMENT_THEORY = SGP/SGP4

EPOCH          = 2026-03-21T20:22:02.555616
MEAN_MOTION    = 15.69453239
ECCENTRICITY   = .00005056
INCLINATION    = 41.4733
RA_OF_ASC_NODE = 128.4589
ARG_OF_PERICENTER = 233.4003
MEAN_ANOMALY   = 126.6793

EPHEMERIS_TYPE = 0
CLASSIFICATION_TYPE = U
NORAD_CAT_ID   = 66515
ELEMENT_SET_NO = 999
REV_AT_EPOCH   = 1998
BSTAR          = .36504589E-3
MEAN_MOTION_DOT = .44117E-3
MEAN_MOTION_DDOT = 0

CCSDS_OMM_VERS = 2.0
CREATION_DATE  = 
ORIGINATOR     = 

OBJECT_NAME    = SHENZHOU-22
OBJECT_ID      = 2025-272A
CENTER_NAME    = EARTH
REF_FRAME      = TEME
TIME_SYSTEM    = UTC
MEAN_ELEMENT_THEORY = SGP/SGP4

EPOCH          = 2026-03-22T06:07:34.959072
MEAN_MOTION    = 15.61310205
ECCENTRICITY   = .00052339
INCLINATION    = 41.4659
RA_OF_ASC_NODE = 131.6673
ARG_OF_PERICENTER = 353.6422
MEAN_ANOMALY   = 6.4349

EPHEMERIS_TYPE = 0
CLASSIFICATION_TYPE = U
NORAD_CAT_ID   = 66645
ELEMENT_SET_NO = 999
REV_AT_EPOCH   = 27910
BSTAR          = .29762829E-3
MEAN_MOTION_DOT = .25791E-3
MEAN_MOTION_DDOT = 0

CCSDS_OMM_VERS = 2.0
CREATION_DATE  = 
ORIGINATOR     = 

OBJECT_NAME    = SOYUZ-MS 28
OBJECT_ID      = 2025-275A
CENTER_NAME    = EARTH
REF_FRAME      = TEME
TIME_SYSTEM    = UTC
MEAN_ELEMENT_THEORY = SGP/SGP4

EPOCH          = 2026-03-22T03:54:40.385952
MEAN_MOTION    = 15.48444672
ECCENTRICITY   = .00061864
INCLINATION    = 51.6343
RA_OF_ASC_NODE = 10.6992
ARG_OF_PERICENTER = 218.8034
MEAN_ANOMALY   = 141.2511

EPHEMERIS_TYPE = 0
CLASSIFICATION_TYPE = U
NORAD_CAT_ID   = 66664
ELEMENT_SET_NO = 999
REV_AT_EPOCH   = 55771
BSTAR          = .28686415E-3
MEAN_MOTION_DOT = .15089E-3
MEAN_MOTION_DDOT = 0

CCSDS_OMM_VERS = 2.0
CREATION_DATE  = 
ORIGINATOR     = 

OBJECT_NAME    = DUPLEX
OBJECT_ID      = 1998-067XS
CENTER_NAME    = EARTH
REF_FRAME      = TEME
TIME_SYSTEM    = UTC
MEAN_ELEMENT_THEORY = SGP/SGP4

EPOCH          = 2026-03-22T00:58:43.568256
MEAN_MOTION    = 15.56978063
ECCENTRICITY   = .00030958
INCLINATION    = 51.6305
RA_OF_ASC_NODE = 7.6356
ARG_OF_PERICENTER = 165.6080
MEAN_ANOMALY   = 194.5000

EPHEMERIS_TYPE = 0
CLASSIFICATION_TYPE = U
NORAD_CAT_ID   = 66906
ELEMENT_SET_NO = 999
REV_AT_EPOCH   = 1705
BSTAR          = .4672237E-3
MEAN_MOTION_DOT = .34012E-3
MEAN_MOTION_DDOT = 0

CCSDS_OMM_VERS = 2.0
CREATION_DATE  = 
ORIGINATOR     = 

OBJECT_NAME    = ISS OBJECT XT
OBJECT_ID      = 1998-067XT
CENTER_NAME    = EARTH
REF_FRAME      = TEME
TIME_SYSTEM    = UTC
MEAN_ELEMENT_THEORY = SGP/SGP4

EPOCH          = 2026-03-22T01:09:00.897120
MEAN_MOTION    = 15.73470745
ECCENTRICITY   = .00053178
INCLINATION    = 51.6258
RA_OF_ASC_NODE = 2.4058
ARG_OF_PERICENTER = 159.5526
MEAN_ANOMALY   = 200.5686

EPHEMERIS_TYPE = 0
CLASSIFICATION_TYPE = U
NORAD_CAT_ID   = 66907
ELEMENT_SET_NO = 999
REV_AT_EPOCH   = 1712
BSTAR          = .14285344E-2
MEAN_MOTION_DOT = .207763E-2
MEAN_MOTION_DDOT = 0

CCSDS_OMM_VERS = 2.0
CREATION_DATE  = 
ORIGINATOR     = 

OBJECT_NAME    = ISS OBJECT XU
OBJECT_ID      = 1998-067XU
CENTER_NAME    = EARTH
REF_FRAME      = TEME
TIME_SYSTEM    = UTC
MEAN_ELEMENT_THEORY = SGP/SGP4

EPOCH          = 2026-03-22T01:04:51.210624
MEAN_MOTION    = 15.73628129
ECCENTRICITY   = .00055198
INCLINATION    = 51.6253
RA_OF_ASC_NODE = 2.3825
ARG_OF_PERICENTER = 158.4506
MEAN_ANOMALY   = 201.6726

EPHEMERIS_TYPE = 0
CLASSIFICATION_TYPE = U
NORAD_CAT_ID   = 66908
ELEMENT_SET_NO = 999
REV_AT_EPOCH   = 1712
BSTAR          = .14325547E-2
MEAN_MOTION_DOT = .209827E-2
MEAN_MOTION_DDOT = 0

CCSDS_OMM_VERS = 2.0
CREATION_DATE  = 
ORIGINATOR     = 

OBJECT_NAME    = SILVERSAT
OBJECT_ID      = 1998-067XV
CENTER_NAME    = EARTH
REF_FRAME      = TEME
TIME_SYSTEM    = UTC
MEAN_ELEMENT_THEORY = SGP/SGP4

EPOCH          = 2026-03-22T00:27:19.065888
MEAN_MOTION    = 15.77783602
ECCENTRICITY   = .00060124
INCLINATION    = 51.6232
RA_OF_ASC_NODE = 1.4518
ARG_OF_PERICENTER = 164.3213
MEAN_ANOMALY   = 195.7975

EPHEMERIS_TYPE = 0
CLASSIFICATION_TYPE = U
NORAD_CAT_ID   = 66909
ELEMENT_SET_NO = 999
REV_AT_EPOCH   = 1713
BSTAR          = .16492891E-2
MEAN_MOTION_DOT = .292872E-2
MEAN_MOTION_DDOT = 0

CCSDS_OMM_VERS = 2.0
CREATION_DATE  = 
ORIGINATOR     = 

OBJECT_NAME    = ISS OBJECT XW
OBJECT_ID      = 1998-067XW
CENTER_NAME    = EARTH
REF_FRAME      = TEME
TIME_SYSTEM    = UTC
MEAN_ELEMENT_THEORY = SGP/SGP4

EPOCH          = 2026-03-22T01:11:25.415808
MEAN_MOTION    = 15.72382952
ECCENTRICITY   = .00059165
INCLINATION    = 51.6254
RA_OF_ASC_NODE = 2.4094
ARG_OF_PERICENTER = 160.5806
MEAN_ANOMALY   = 199.5419

EPHEMERIS_TYPE = 0
CLASSIFICATION_TYPE = U
NORAD_CAT_ID   = 66910
ELEMENT_SET_NO = 999
REV_AT_EPOCH   = 1712
BSTAR          = .13779068E-2
MEAN_MOTION_DOT = .190918E-2
MEAN_MOTION_DDOT = 0

CCSDS_OMM_VERS = 2.0
CREATION_DATE  = 
ORIGINATOR     = 

OBJECT_NAME    = ISS OBJECT XX
OBJECT_ID      = 1998-067XX
CENTER_NAME    = EARTH
REF_FRAME      = TEME
TIME_SYSTEM    = UTC
MEAN_ELEMENT_THEORY = SGP/SGP4

EPOCH          = 2026-03-21T19:05:44.145312
MEAN_MOTION    = 15.82512156
ECCENTRICITY   = .00075961
INCLINATION    = 51.6202
RA_OF_ASC_NODE = 1.4317
ARG_OF_PERICENTER = 165.5607
MEAN_ANOMALY   = 194.5614

EPHEMERIS_TYPE = 0
CLASSIFICATION_TYPE = U
NORAD_CAT_ID   = 66911
ELEMENT_SET_NO = 999
REV_AT_EPOCH   = 1710
BSTAR          = .2054154E-2
MEAN_MOTION_DOT = .46225E-2
MEAN_MOTION_DDOT = 0

CCSDS_OMM_VERS = 2.0
CREATION_DATE  = 
ORIGINATOR     = 

OBJECT_NAME    = ISS OBJECT XY
OBJECT_ID      = 1998-067XY
CENTER_NAME    = EARTH
REF_FRAME      = TEME
TIME_SYSTEM    = UTC
MEAN_ELEMENT_THEORY = SGP/SGP4

EPOCH          = 2026-03-21T12:34:04.346688
MEAN_MOTION    = 15.65954710
ECCENTRICITY   = .0003878
INCLINATION    = 51.6282
RA_OF_ASC_NODE = 7.1735
ARG_OF_PERICENTER = 158.9718
MEAN_ANOMALY   = 201.1438

EPHEMERIS_TYPE = 0
CLASSIFICATION_TYPE = U
NORAD_CAT_ID   = 66912
ELEMENT_SET_NO = 999
REV_AT_EPOCH   = 1700
BSTAR          = .12251516E-2
MEAN_MOTION_DOT = .129023E-2
MEAN_MOTION_DDOT = 0

CCSDS_OMM_VERS = 2.0
CREATION_DATE  = 
ORIGINATOR     = 

OBJECT_NAME    = KNACKSAT-2
OBJECT_ID      = 1998-067XZ
CENTER_NAME    = EARTH
REF_FRAME      = TEME
TIME_SYSTEM    = UTC
MEAN_ELEMENT_THEORY = SGP/SGP4

EPOCH          = 2026-03-22T00:33:47.312928
MEAN_MOTION    = 15.52813480
ECCENTRICITY   = .00097794
INCLINATION    = 51.6319
RA_OF_ASC_NODE = 10.5197
ARG_OF_PERICENTER = 229.8924
MEAN_ANOMALY   = 130.1210

EPHEMERIS_TYPE = 0
CLASSIFICATION_TYPE = U
NORAD_CAT_ID   = 67683
ELEMENT_SET_NO = 999
REV_AT_EPOCH   = 670
BSTAR          = .76672661E-3
MEAN_MOTION_DOT = .48297E-3
MEAN_MOTION_DDOT = 0

